CCSDS_OEM_VERS = 1.0
CREATION_DATE  = 2017-05-11T11:48:31
ORIGINATOR     = GMAT USER

META_START
OBJECT_NAME          = MOPSSat_alt_35785_km_RAAN_270_004
OBJECT_ID            = SatId
CENTER_NAME          = Earth
REF_FRAME            = EME2000
TIME_SYSTEM          = UTC
START_TIME           = 2017-01-01T00:00:00.000
USEABLE_START_TIME   = 2017-01-01T00:00:00.000
USEABLE_STOP_TIME    = 2017-01-02T00:00:00.000
STOP_TIME            = 2017-01-02T00:00:00.000
INTERPOLATION        = Lagrange
INTERPOLATION_DEGREE = 7 
META_STOP


                                                                                   

2017-01-01T17:06:40.000  -4.114345405356583e+04   9.202946102301241e+03   1.500629007378926e+00  -6.714127630839192e-01  -3.000747804462087e+00   1.187012233322154e-04
2017-01-01T17:06:50.000  -4.115015723803913e+04   9.172936180129893e+03   1.501815754966041e+00  -6.692240970130123e-01  -3.001236474851159e+00   1.186482850876044e-04
2017-01-01T17:07:00.000  -4.115683853406466e+04   9.142921379270176e+03   1.503001972767514e+00  -6.670350752564211e-01  -3.001723548757200e+00   1.185952664717720e-04
2017-01-01T17:07:10.000  -4.116349793816359e+04   9.112901715368425e+03   1.504187659992389e+00  -6.648456989555367e-01  -3.002209025926812e+00   1.185421675009072e-04
2017-01-01T17:07:20.000  -4.117013544679873e+04   9.082877204377335e+03   1.505372815837794e+00  -6.626559692740962e-01  -3.002692906102356e+00   1.184889881917766e-04
2017-01-01T17:07:30.000  -4.117675105644162e+04   9.052847862268049e+03   1.506557439500419e+00  -6.604658873771786e-01  -3.003175189026821e+00   1.184357285612261e-04
2017-01-01T17:07:40.000  -4.118334476357146e+04   9.022813705029834e+03   1.507741530176489e+00  -6.582754544311854e-01  -3.003655874443759e+00   1.183823886261766e-04
2017-01-01T17:07:50.000  -4.118991656461445e+04   8.992774748959522e+03   1.508925087050448e+00  -6.560846716249491e-01  -3.004134962092860e+00   1.183289684041478e-04
2017-01-01T17:08:00.000  -4.119646645602657e+04   8.962731010271915e+03   1.510108109310229e+00  -6.538935401413187e-01  -3.004612451715982e+00   1.182754679125572e-04
2017-01-01T17:08:10.000  -4.120299443425993e+04   8.932682505256069e+03   1.511290596141116e+00  -6.517020611685579e-01  -3.005088343054706e+00   1.182218871689995e-04
2017-01-01T17:08:20.000  -4.120950049591267e+04   8.902629249585885e+03   1.512472546752877e+00  -6.495102358500654e-01  -3.005562635861256e+00   1.181682261900173e-04
2017-01-01T17:08:30.000  -4.121598463757856e+04   8.872571259011198e+03   1.513653960352558e+00  -6.473180653347791e-01  -3.006035329887545e+00   1.181144849923329e-04
2017-01-01T17:08:40.000  -4.122244685588604e+04   8.842508549179442e+03   1.514834836151512e+00  -6.451255507641658e-01  -3.006506424888003e+00   1.180606635925315e-04
2017-01-01T17:08:50.000  -4.122888714739250e+04   8.812441136115098e+03   1.516015173346484e+00  -6.429326933071923e-01  -3.006975920611890e+00   1.180067620079115e-04
2017-01-01T17:09:00.000  -4.123530550867193e+04   8.782369035824118e+03   1.517194971135232e+00  -6.407394941314720e-01  -3.007443816809678e+00   1.179527802557844e-04
2017-01-01T17:09:10.000  -4.124170193629467e+04   8.752292264385087e+03   1.518374228712921e+00  -6.385459544099162e-01  -3.007910113231566e+00   1.178987183536353e-04
2017-01-01T17:09:20.000  -4.124807642683648e+04   8.722210837914161e+03   1.519552945273554e+00  -6.363520753181752e-01  -3.008374809628158e+00   1.178445763190658e-04
2017-01-01T17:09:30.000  -4.125442897688095e+04   8.692124772547946e+03   1.520731120010602e+00  -6.341578580333902e-01  -3.008837905750620e+00   1.177903541697585e-04
2017-01-01T17:09:40.000  -4.126075958302701e+04   8.662034084407505e+03   1.521908752118411e+00  -6.319633037315673e-01  -3.009299401351249e+00   1.177360519234127e-04
2017-01-01T17:09:50.000  -4.126706824189383e+04   8.631938789581745e+03   1.523085840792899e+00  -6.297684135863698e-01  -3.009759296183805e+00   1.176816695977179e-04
2017-01-01T17:10:00.000  -4.127335495012673e+04   8.601838904091690e+03   1.524262385232900e+00  -6.275731887665065e-01  -3.010217590003968e+00   1.176272072102847e-04
2017-01-01T17:10:10.000  -4.127961970437860e+04   8.571734443982017e+03   1.525438384636607e+00  -6.253776304424122e-01  -3.010674282567963e+00   1.175726647788127e-04
2017-01-01T17:10:20.000  -4.128586250139047e+04   8.541625424923943e+03   1.526613838217015e+00  -6.231817397572840e-01  -3.011129373638440e+00   1.175180423203640e-04
2017-01-01T17:10:30.000  -4.129208333789340e+04   8.511511862696347e+03   1.527788745183194e+00  -6.209855178621704e-01  -3.011582862977329e+00   1.174633398522418e-04
2017-01-01T17:10:40.000  -4.129828221064589e+04   8.481393773003962e+03   1.528963104747379e+00  -6.187889659027118e-01  -3.012034750348560e+00   1.174085573916589e-04
2017-01-01T17:10:50.000  -4.130445911628871e+04   8.451271172181509e+03   1.530136916097499e+00  -6.165920850704943e-01  -3.012485035507475e+00   1.173536949570175e-04
2017-01-01T17:11:00.000  -4.131061405149019e+04   8.421144076489598e+03   1.531310178424653e+00  -6.143948765516976e-01  -3.012933718211432e+00   1.172987525666303e-04
2017-01-01T17:11:10.000  -4.131674701290849e+04   8.391012502296397e+03   1.532482890916012e+00  -6.121973415403457e-01  -3.013380798217051e+00   1.172437302390495e-04
2017-01-01T17:11:20.000  -4.132285799729203e+04   8.360876465597017e+03   1.533655052773605e+00  -6.099994812032542e-01  -3.013826275287525e+00   1.171886279921983e-04
2017-01-01T17:11:30.000  -4.132894700139625e+04   8.330735982410020e+03   1.534826663198807e+00  -6.078012967089496e-01  -3.014270149186566e+00   1.171334458440862e-04
2017-01-01T17:11:40.000  -4.133501402200282e+04   8.300591068686022e+03   1.535997721395919e+00  -6.056027892210009e-01  -3.014712419679796e+00   1.170781838126442e-04
2017-01-01T17:11:50.000  -4.134105905591101e+04   8.270441740342840e+03   1.537168226570751e+00  -6.034039599005850e-01  -3.015153086534121e+00   1.170228419157835e-04
2017-01-01T17:12:00.000  -4.134708209993542e+04   8.240288013282605e+03   1.538338177929996e+00  -6.012048099077351e-01  -3.015592149517567e+00   1.169674201714316e-04
2017-01-01T17:12:10.000  -4.135308315089885e+04   8.210129903427842e+03   1.539507574679829e+00  -5.990053404039698e-01  -3.016029608398757e+00   1.169119185975987e-04
2017-01-01T17:12:20.000  -4.135906220562763e+04   8.179967426738091e+03   1.540676416025225e+00  -5.968055525535083e-01  -3.016465462946574e+00   1.168563372124041e-04
2017-01-01T17:12:30.000  -4.136501926094612e+04   8.149800599245705e+03   1.541844701168618e+00  -5.946054475258779e-01  -3.016899712929754e+00   1.168006760341469e-04
2017-01-01T17:12:40.000  -4.137095431369420e+04   8.119629436964077e+03   1.543012429313438e+00  -5.924050264892238e-01  -3.017332358118172e+00   1.167449350811352e-04
2017-01-01T17:12:50.000  -4.137686736065122e+04   8.089453956285611e+03   1.544179599648778e+00  -5.902042906393316e-01  -3.017763398277284e+00   1.166891143724271e-04
2017-01-01T17:13:00.000  -4.138275839862860e+04   8.059274173499532e+03   1.545346211367985e+00  -5.880032411644626e-01  -3.018192833174892e+00   1.166332139269341e-04
2017-01-01T17:13:10.000  -4.138862742443520e+04   8.029090104971138e+03   1.546512263661744e+00  -5.858018792584245e-01  -3.018620662578609e+00   1.165772337637534e-04
2017-01-01T17:13:20.000  -4.139447443501254e+04   7.998901766447546e+03   1.547677755744902e+00  -5.836002060699393e-01  -3.019046886265718e+00   1.165211739008821e-04
2017-01-01T17:13:30.000  -4.140029942729968e+04   7.968709173750118e+03   1.548842686829707e+00  -5.813982227531447e-01  -3.019471504013323e+00   1.164650343564990e-04
2017-01-01T17:13:40.000  -4.140610239826425e+04   7.938512342617657e+03   1.550007056131882e+00  -5.791959304561559e-01  -3.019894515600617e+00   1.164088151486760e-04
2017-01-01T17:13:50.000  -4.141188334482429e+04   7.908311289096888e+03   1.551170862855468e+00  -5.769933303495444e-01  -3.020315920803170e+00   1.163525162960945e-04
2017-01-01T17:14:00.000  -4.141764226390709e+04   7.878106029252688e+03   1.552334106204101e+00  -5.747904236052058e-01  -3.020735719397240e+00   1.162961378175164e-04
2017-01-01T17:14:10.000  -4.142337915244808e+04   7.847896579167865e+03   1.553496785380977e+00  -5.725872113963418e-01  -3.021153911159667e+00   1.162396797317802e-04
2017-01-01T17:14:20.000  -4.142909400733851e+04   7.817682955234155e+03   1.554658899577755e+00  -5.703836949186853e-01  -3.021570495864074e+00   1.161831420583536e-04
2017-01-01T17:14:30.000  -4.143478682549701e+04   7.787465173760459e+03   1.555820447989538e+00  -5.681798753619262e-01  -3.021985473286088e+00   1.161265248165936e-04
2017-01-01T17:14:40.000  -4.144045760384104e+04   7.757243251127082e+03   1.556981429808964e+00  -5.659757539209620e-01  -3.022398843201240e+00   1.160698280260354e-04
2017-01-01T17:14:50.000  -4.144610633941493e+04   7.727017203103762e+03   1.558141844252407e+00  -5.637713317461606e-01  -3.022810605394326e+00   1.160130517051147e-04
2017-01-01T17:15:00.000  -4.145173302926176e+04   7.696787045531585e+03   1.559301690533771e+00  -5.615666099930919e-01  -3.023220759650033e+00   1.159561958724449e-04
2017-01-01T17:15:10.000  -4.145733767045251e+04   7.666552794168889e+03   1.560460967870424e+00  -5.593615898112917e-01  -3.023629305755099e+00   1.158992605465307e-04
2017-01-01T17:15:20.000  -4.146292026001064e+04   7.636314465082251e+03   1.561619675468108e+00  -5.571562723727735e-01  -3.024036243492788e+00   1.158422457464936e-04
2017-01-01T17:15:30.000  -4.146848079496899e+04   7.606072074356340e+03   1.562777812532169e+00  -5.549506588508714e-01  -3.024441572647056e+00   1.157851514915363e-04
2017-01-01T17:15:40.000  -4.147401927236864e+04   7.575825638093694e+03   1.563935378267518e+00  -5.527447504202214e-01  -3.024845293002454e+00   1.157279778009380e-04
